REAL                    
1 64875U 25154G   26068.72233414  .00022901  00000+0  82904-3 0  9994
2 64875  97.4133 137.2581 0001853 118.5876 241.5550 15.28408058 34830
STARLINK-34724          
1 66442U 25259W   26067.95365030  .00027869  00000+0  10179-2 0  9998
2 66442  43.0058 278.9373 0002544 271.3973  88.6587 15.27595092 19377
