[{"OBJECT_NAME":"REAL","OBJECT_ID":"2025-154G","EPOCH":"2026-03-09T17:20:09.670560","MEAN_MOTION":15.28408058,"ECCENTRICITY":0.00018528,"INCLINATION":97.4133,"RA_OF_ASC_NODE":137.2581,"ARG_OF_PERICENTER":118.5876,"MEAN_ANOMALY":241.555,"EPHEMERIS_TYPE":0,"CLASSIFICATION_TYPE":"U","NORAD_CAT_ID":64875,"ELEMENT_SET_NO":999,"REV_AT_EPOCH":3483,"BSTAR":0.0008290401,"MEAN_MOTION_DOT":0.00022901,"MEAN_MOTION_DDOT":0},{"OBJECT_NAME":"STARLINK-34724","OBJECT_ID":"2025-259W","EPOCH":"2026-03-08T22:53:15.385920","MEAN_MOTION":15.27595092,"ECCENTRICITY":0.0002544,"INCLINATION":43.0058,"RA_OF_ASC_NODE":278.9373,"ARG_OF_PERICENTER":271.3973,"MEAN_ANOMALY":88.6587,"EPHEMERIS_TYPE":0,"CLASSIFICATION_TYPE":"U","NORAD_CAT_ID":66442,"ELEMENT_SET_NO":999,"REV_AT_EPOCH":1937,"BSTAR":0.0010179236,"MEAN_MOTION_DOT":0.00027869,"MEAN_MOTION_DDOT":0}]
